[{"OBJECT_NAME":"ONEWEB-0378","OBJECT_ID":"2021-090AB","EPOCH":"2026-03-09T15:20:32.939232","MEAN_MOTION":13.20769988,"ECCENTRICITY":0.0001502,"INCLINATION":87.9161,"RA_OF_ASC_NODE":294.3226,"ARG_OF_PERICENTER":82.4102,"MEAN_ANOMALY":277.7202,"EPHEMERIS_TYPE":0,"CLASSIFICATION_TYPE":"U","NORAD_CAT_ID":49304,"ELEMENT_SET_NO":999,"REV_AT_EPOCH":21664,"BSTAR":0.00014225,"MEAN_MOTION_DOT":7.1e-7,"MEAN_MOTION_DDOT":0},{"OBJECT_NAME":"SL-14 DEB","OBJECT_ID":"1991-056AZ","EPOCH":"2026-03-09T07:52:17.853888","MEAN_MOTION":13.18825935,"ECCENTRICITY":0.00163947,"INCLINATION":82.5512,"RA_OF_ASC_NODE":204.5375,"ARG_OF_PERICENTER":357.9962,"MEAN_ANOMALY":2.1093,"EPHEMERIS_TYPE":0,"CLASSIFICATION_TYPE":"U","NORAD_CAT_ID":45311,"ELEMENT_SET_NO":999,"REV_AT_EPOCH":29044,"BSTAR":0.00032109184,"MEAN_MOTION_DOT":1.39e-6,"MEAN_MOTION_DDOT":0}]
